{
  "data": [
    {
      "areaSize": 50,
      "street": "ogród Sieradzki",
      "houseNumber": "45b",
      "postCode": "75-077",
      "city": "Sulmierzyce"
    },
    {
      "areaSize": 50,
      "street": "wyb. Jaworski",
      "houseNumber": "35",
      "postCode": "92-993",
      "city": "Żabno"
    },
    {
      "areaSize": 50,
      "street": "rondo Bielawski",
      "houseNumber": "5/7",
      "postCode": "49-554",
      "city": "Sieradz"
    },
    {
      "areaSize": 50,
      "street": "pl. Śliwa",
      "houseNumber": "845",
      "postCode": "06-699",
      "city": "Ciechanowiec"
    },
    {
      "areaSize": 50,
      "street": "rynek Bochenek",
      "houseNumber": "42",
      "postCode": "24-078",
      "city": "Sępólno Krajeńskie"
    },
    {
      "areaSize": 50,
      "street": "rynek Siedlecki",
      "houseNumber": "6/6",
      "postCode": "62-626",
      "city": "Wolbórz"
    },
    {
      "areaSize": 50,
      "street": "rynek Wieczorek",
      "houseNumber": "8/9",
      "postCode": "29-618",
      "city": "Gostyń"
    },
    {
      "areaSize": 50,
      "street": "al. Książek",
      "houseNumber": "37c",
      "postCode": "97-648",
      "city": "Głogów Małopolski"
    },
    {
      "areaSize": 50,
      "street": "skwer Gołębiowski",
      "houseNumber": "15",
      "postCode": "74-954",
      "city": "Grudziądz"
    },
    {
      "areaSize": 50,
      "street": "al. Rojek",
      "houseNumber": "391",
      "postCode": "01-146",
      "city": "Więcbork"
    },
    {
      "areaSize": 50,
      "street": "rondo Niemiec",
      "houseNumber": "25a",
      "postCode": "30-218",
      "city": "Puck"
    },
    {
      "areaSize": 50,
      "street": "park Krupa",
      "houseNumber": "54b",
      "postCode": "87-289",
      "city": "Wejherowo"
    },
    {
      "areaSize": 50,
      "street": "rynek Głowacki",
      "houseNumber": "44",
      "postCode": "21-968",
      "city": "Prusice"
    },
    {
      "areaSize": 50,
      "street": "droga Kacprzak",
      "houseNumber": "77",
      "postCode": "83-742",
      "city": "Żmigród"
    },
    {
      "areaSize": 50,
      "street": "droga Romanowski",
      "houseNumber": "70",
      "postCode": "31-024",
      "city": "Bieżuń"
    },
    {
      "areaSize": 50,
      "street": "rondo Kurowski",
      "houseNumber": "5/3",
      "postCode": "60-528",
      "city": "Frampol"
    },
    {
      "areaSize": 50,
      "street": "skwer Jankowski",
      "houseNumber": "84b",
      "postCode": "29-134",
      "city": "Ogrodzieniec"
    },
    {
      "areaSize": 50,
      "street": "droga Wesołowski",
      "houseNumber": "17b",
      "postCode": "07-956",
      "city": "Kępno"
    },
    {
      "areaSize": 50,
      "street": "droga Tomala",
      "houseNumber": "59a",
      "postCode": "79-859",
      "city": "Łowicz"
    },
    {
      "areaSize": 50,
      "street": "wyspa Partyka",
      "houseNumber": "23c",
      "postCode": "93-353",
      "city": "Płock"
    },
    {
      "areaSize": 50,
      "street": "bulw. Kmiecik",
      "houseNumber": "57",
      "postCode": "58-820",
      "city": "Stryków"
    },
    {
      "areaSize": 50,
      "street": "park Bielak",
      "houseNumber": "87a",
      "postCode": "95-444",
      "city": "Serock"
    },
    {
      "areaSize": 50,
      "street": "bulw. Woś",
      "houseNumber": "203",
      "postCode": "78-591",
      "city": "Bielsk Podlaski"
    },
    {
      "areaSize": 50,
      "street": "bulw. Falkowski",
      "houseNumber": "318",
      "postCode": "30-000",
      "city": "Braniewo"
    },
    {
      "areaSize": 50,
      "street": "rynek Graczyk",
      "houseNumber": "108",
      "postCode": "36-236",
      "city": "Buk"
    },
    {
      "areaSize": 50,
      "street": "ul. Kwaśniewski",
      "houseNumber": "43a",
      "postCode": "39-994",
      "city": "Żukowo"
    },
    {
      "areaSize": 50,
      "street": "rynek Czechowski",
      "houseNumber": "37c",
      "postCode": "32-758",
      "city": "Bielawa"
    },
    {
      "areaSize": 50,
      "street": "wyb. Bieniek",
      "houseNumber": "78b",
      "postCode": "50-640",
      "city": "Alwernia"
    },
    {
      "areaSize": 50,
      "street": "wyb. Antczak",
      "houseNumber": "64a",
      "postCode": "84-045",
      "city": "Szlichtyngowa"
    },
    {
      "areaSize": 50,
      "street": "bulw. Cichocki",
      "houseNumber": "869",
      "postCode": "92-938",
      "city": "Boguszów-Gorce"
    },
    {
      "areaSize": 50,
      "street": "skwer Stelmach",
      "houseNumber": "43",
      "postCode": "67-043",
      "city": "Malbork"
    },
    {
      "areaSize": 50,
      "street": "rynek Chojnowski",
      "houseNumber": "8/4",
      "postCode": "54-159",
      "city": "Strumień"
    },
    {
      "areaSize": 50,
      "street": "pl. Czyż",
      "houseNumber": "31b",
      "postCode": "74-356",
      "city": "Skórcz"
    },
    {
      "areaSize": 50,
      "street": "bulw. Drabik",
      "houseNumber": "83b",
      "postCode": "49-351",
      "city": "Piekary Śląskie"
    },
    {
      "areaSize": 50,
      "street": "wyspa Rogowski",
      "houseNumber": "1/3",
      "postCode": "62-459",
      "city": "Opoczno"
    },
    {
      "areaSize": 50,
      "street": "ogród Kozak",
      "houseNumber": "573",
      "postCode": "73-786",
      "city": "Szklarska Poręba"
    },
    {
      "areaSize": 50,
      "street": "wyb. Dziedzic",
      "houseNumber": "63c",
      "postCode": "90-720",
      "city": "Nowe"
    },
    {
      "areaSize": 50,
      "street": "skwer Urbański",
      "houseNumber": "20a",
      "postCode": "99-185",
      "city": "Zator"
    },
    {
      "areaSize": 50,
      "street": "ogród Flak",
      "houseNumber": "77",
      "postCode": "37-453",
      "city": "Brzostek"
    },
    {
      "areaSize": 50,
      "street": "pl. Kuc",
      "houseNumber": "956",
      "postCode": "18-612",
      "city": "Stawiszyn"
    },
    {
      "areaSize": 50,
      "street": "skwer Filipek",
      "houseNumber": "421",
      "postCode": "00-035",
      "city": "Nowy Tomyśl"
    },
    {
      "areaSize": 50,
      "street": "ul. Marek",
      "houseNumber": "80b",
      "postCode": "56-658",
      "city": "Miastko"
    },
    {
      "areaSize": 50,
      "street": "rondo Strzelczyk",
      "houseNumber": "79a",
      "postCode": "17-954",
      "city": "Stoczek Łukowski"
    },
    {
      "areaSize": 50,
      "street": "rynek Jurek",
      "houseNumber": "97",
      "postCode": "70-641",
      "city": "Jaworzyna Śląska"
    },
    {
      "areaSize": 50,
      "street": "ogród Trzciński",
      "houseNumber": "15a",
      "postCode": "30-941",
      "city": "Imielin"
    },
    {
      "areaSize": 50,
      "street": "skwer Banaś",
      "houseNumber": "7/1",
      "postCode": "84-865",
      "city": "Janów Lubelski"
    },
    {
      "areaSize": 50,
      "street": "szosa Czechowski",
      "houseNumber": "3/1",
      "postCode": "45-574",
      "city": "Bieżuń"
    },
    {
      "areaSize": 50,
      "street": "park Kosiński",
      "houseNumber": "71c",
      "postCode": "54-963",
      "city": "Kańczuga"
    },
    {
      "areaSize": 50,
      "street": "al. Przybylski",
      "houseNumber": "74a",
      "postCode": "95-754",
      "city": "Grybów"
    },
    {
      "areaSize": 50,
      "street": "droga Pawelec",
      "houseNumber": "42c",
      "postCode": "38-940",
      "city": "Kolbuszowa"
    },
    {
      "areaSize": 50,
      "street": "rynek Kalisz",
      "houseNumber": "62b",
      "postCode": "48-135",
      "city": "Pionki"
    },
    {
      "areaSize": 50,
      "street": "os. Warchoł",
      "houseNumber": "63",
      "postCode": "02-423",
      "city": "Cedynia"
    },
    {
      "areaSize": 50,
      "street": "park Klimczak",
      "houseNumber": "738",
      "postCode": "44-423",
      "city": "Rzeszów"
    },
    {
      "areaSize": 50,
      "street": "rondo Gołąb",
      "houseNumber": "12c",
      "postCode": "31-456",
      "city": "Wieleń"
    },
    {
      "areaSize": 50,
      "street": "szosa Grzesiak",
      "houseNumber": "14",
      "postCode": "02-505",
      "city": "Zawiercie"
    },
    {
      "areaSize": 50,
      "street": "wyb. Czech",
      "houseNumber": "91b",
      "postCode": "46-177",
      "city": "Pułtusk"
    },
    {
      "areaSize": 50,
      "street": "wyb. Budzyński",
      "houseNumber": "25",
      "postCode": "73-088",
      "city": "Tomaszów Lubelski"
    },
    {
      "areaSize": 50,
      "street": "os. Wójcicki",
      "houseNumber": "913",
      "postCode": "38-689",
      "city": "Iłowa"
    },
    {
      "areaSize": 50,
      "street": "bulw. Cebula",
      "houseNumber": "83a",
      "postCode": "60-745",
      "city": "Tuliszków"
    },
    {
      "areaSize": 50,
      "street": "pl. Dziedzic",
      "houseNumber": "15a",
      "postCode": "65-609",
      "city": "Miejska Górka"
    },
    {
      "areaSize": 50,
      "street": "bulw. Borek",
      "houseNumber": "4/2",
      "postCode": "88-203",
      "city": "Oborniki Śląskie"
    },
    {
      "areaSize": 50,
      "street": "wyspa Jóźwiak",
      "houseNumber": "35c",
      "postCode": "62-163",
      "city": "Dzierzgoń"
    },
    {
      "areaSize": 50,
      "street": "szosa Krajewski",
      "houseNumber": "58a",
      "postCode": "20-025",
      "city": "Przedecz"
    },
    {
      "areaSize": 50,
      "street": "wyspa Mikulski",
      "houseNumber": "22c",
      "postCode": "84-216",
      "city": "Września"
    },
    {
      "areaSize": 50,
      "street": "szosa Rudziński",
      "houseNumber": "931",
      "postCode": "55-973",
      "city": "Ostrów Wielkopolski"
    },
    {
      "areaSize": 50,
      "street": "pl. Łukaszewski",
      "houseNumber": "96c",
      "postCode": "89-235",
      "city": "Brzeziny"
    },
    {
      "areaSize": 50,
      "street": "szosa Jaśkiewicz",
      "houseNumber": "53",
      "postCode": "93-024",
      "city": "Polanica-Zdrój"
    },
    {
      "areaSize": 50,
      "street": "rynek Karwowski",
      "houseNumber": "16a",
      "postCode": "77-818",
      "city": "Radymno"
    },
    {
      "areaSize": 50,
      "street": "skwer Bednarski",
      "houseNumber": "18b",
      "postCode": "03-896",
      "city": "Lubniewice"
    },
    {
      "areaSize": 50,
      "street": "skwer Czaja",
      "houseNumber": "49b",
      "postCode": "01-854",
      "city": "Wisła"
    },
    {
      "areaSize": 50,
      "street": "skwer Wierzbicki",
      "houseNumber": "27",
      "postCode": "10-345",
      "city": "Kalisz Pomorski"
    },
    {
      "areaSize": 50,
      "street": "rondo Niedziela",
      "houseNumber": "7/1",
      "postCode": "10-528",
      "city": "Przeworsk"
    },
    {
      "areaSize": 50,
      "street": "al. Stawicki",
      "houseNumber": "37",
      "postCode": "52-659",
      "city": "Radziejów"
    },
    {
      "areaSize": 50,
      "street": "wyb. Łukasik",
      "houseNumber": "719",
      "postCode": "27-431",
      "city": "Nowogrodziec"
    },
    {
      "areaSize": 50,
      "street": "rynek Jaros",
      "houseNumber": "29c",
      "postCode": "36-730",
      "city": "Kwidzyn"
    },
    {
      "areaSize": 50,
      "street": "droga Filipek",
      "houseNumber": "44c",
      "postCode": "38-639",
      "city": "Siedlce"
    },
    {
      "areaSize": 50,
      "street": "park Szymkowiak",
      "houseNumber": "63a",
      "postCode": "66-637",
      "city": "Sępólno Krajeńskie"
    },
    {
      "areaSize": 50,
      "street": "bulw. Leśniewski",
      "houseNumber": "22b",
      "postCode": "14-218",
      "city": "Czaplinek"
    },
    {
      "areaSize": 50,
      "street": "al. Kmieć",
      "houseNumber": "183",
      "postCode": "66-851",
      "city": "Kalisz"
    },
    {
      "areaSize": 50,
      "street": "bulw. Krzyżanowski",
      "houseNumber": "7/4",
      "postCode": "77-532",
      "city": "Tomaszów Lubelski"
    },
    {
      "areaSize": 50,
      "street": "ogród Kalinowski",
      "houseNumber": "1/2",
      "postCode": "56-442",
      "city": "Sompolno"
    },
    {
      "areaSize": 50,
      "street": "bulw. Bielawski",
      "houseNumber": "479",
      "postCode": "83-352",
      "city": "Tarnów"
    },
    {
      "areaSize": 50,
      "street": "ogród Piłat",
      "houseNumber": "37b",
      "postCode": "62-841",
      "city": "Susz"
    },
    {
      "areaSize": 50,
      "street": "bulw. Skibiński",
      "houseNumber": "2/5",
      "postCode": "92-111",
      "city": "Sochaczew"
    },
    {
      "areaSize": 50,
      "street": "szosa Madej",
      "houseNumber": "85c",
      "postCode": "60-960",
      "city": "Cybinka"
    },
    {
      "areaSize": 50,
      "street": "al. Frączek",
      "houseNumber": "79c",
      "postCode": "10-892",
      "city": "Żarów"
    },
    {
      "areaSize": 50,
      "street": "ul. Balcerzak",
      "houseNumber": "6/3",
      "postCode": "42-788",
      "city": "Terespol"
    },
    {
      "areaSize": 50,
      "street": "droga Kołakowski",
      "houseNumber": "12a",
      "postCode": "27-856",
      "city": "Chełmża"
    },
    {
      "areaSize": 50,
      "street": "bulw. Skalski",
      "houseNumber": "80a",
      "postCode": "85-048",
      "city": "Bierutów"
    },
    {
      "areaSize": 50,
      "street": "droga Sikora",
      "houseNumber": "62",
      "postCode": "95-815",
      "city": "Zduńska Wola"
    },
    {
      "areaSize": 50,
      "street": "os. Makowski",
      "houseNumber": "738",
      "postCode": "06-839",
      "city": "Czerwieńsk"
    },
    {
      "areaSize": 50,
      "street": "park Bartnik",
      "houseNumber": "776",
      "postCode": "94-913",
      "city": "Ogrodzieniec"
    },
    {
      "areaSize": 50,
      "street": "pl. Misiak",
      "houseNumber": "88c",
      "postCode": "54-324",
      "city": "Otmuchów"
    },
    {
      "areaSize": 50,
      "street": "rondo Kula",
      "houseNumber": "677",
      "postCode": "11-565",
      "city": "Międzychód"
    },
    {
      "areaSize": 50,
      "street": "park Podgórski",
      "houseNumber": "79a",
      "postCode": "58-749",
      "city": "Kazimierza Wielka"
    },
    {
      "areaSize": 50,
      "street": "ul. Filipowicz",
      "houseNumber": "40",
      "postCode": "53-870",
      "city": "Żory"
    },
    {
      "areaSize": 50,
      "street": "al. Zaborowski",
      "houseNumber": "99c",
      "postCode": "52-148",
      "city": "Warszawa"
    },
    {
      "areaSize": 50,
      "street": "rondo Szczęsny",
      "houseNumber": "87a",
      "postCode": "34-112",
      "city": "Nowogród"
    },
    {
      "areaSize": 50,
      "street": "al. Cholewa",
      "houseNumber": "2/4",
      "postCode": "84-791",
      "city": "Łasin"
    },
    {
      "areaSize": 50,
      "street": "droga Olszewski",
      "houseNumber": "24",
      "postCode": "84-822",
      "city": "Starachowice"
    },
    {
      "areaSize": 50,
      "street": "rynek Stępień",
      "houseNumber": "57",
      "postCode": "28-070",
      "city": "Mielec"
    },
    {
      "areaSize": 50,
      "street": "pl. Mucha",
      "houseNumber": "6/1",
      "postCode": "46-781",
      "city": "Człopa"
    },
    {
      "areaSize": 50,
      "street": "ogród Wesołowski",
      "houseNumber": "78a",
      "postCode": "22-007",
      "city": "Supraśl"
    },
    {
      "areaSize": 50,
      "street": "os. Augustyn",
      "houseNumber": "26a",
      "postCode": "62-152",
      "city": "Obrzycko"
    },
    {
      "areaSize": 50,
      "street": "droga Pluta",
      "houseNumber": "59",
      "postCode": "66-837",
      "city": "Debrzno"
    },
    {
      "areaSize": 50,
      "street": "rondo Klimczak",
      "houseNumber": "4/2",
      "postCode": "39-919",
      "city": "Stęszew"
    },
    {
      "areaSize": 50,
      "street": "droga Piwowarczyk",
      "houseNumber": "85b",
      "postCode": "63-511",
      "city": "Krosno Odrzańskie"
    },
    {
      "areaSize": 50,
      "street": "bulw. Cygan",
      "houseNumber": "90",
      "postCode": "13-165",
      "city": "Brodnica"
    },
    {
      "areaSize": 50,
      "street": "ogród Marczak",
      "houseNumber": "87",
      "postCode": "06-056",
      "city": "Hel"
    },
    {
      "areaSize": 50,
      "street": "al. Sławiński",
      "houseNumber": "49b",
      "postCode": "41-426",
      "city": "Lubartów"
    },
    {
      "areaSize": 50,
      "street": "os. Głowacki",
      "houseNumber": "28",
      "postCode": "91-472",
      "city": "Kazimierz Dolny"
    },
    {
      "areaSize": 50,
      "street": "wyspa Januszewski",
      "houseNumber": "62a",
      "postCode": "70-078",
      "city": "Krynki"
    },
    {
      "areaSize": 50,
      "street": "droga Stachowicz",
      "houseNumber": "84a",
      "postCode": "40-103",
      "city": "Złotoryja"
    },
    {
      "areaSize": 50,
      "street": "skwer Jędrzejewski",
      "houseNumber": "45a",
      "postCode": "68-493",
      "city": "Żary"
    },
    {
      "areaSize": 50,
      "street": "skwer Szczygieł",
      "houseNumber": "42b",
      "postCode": "33-822",
      "city": "Świebodzice"
    },
    {
      "areaSize": 50,
      "street": "al. Gawlik",
      "houseNumber": "4/5",
      "postCode": "74-777",
      "city": "Drzewica"
    },
    {
      "areaSize": 50,
      "street": "wyb. Stachurski",
      "houseNumber": "15",
      "postCode": "21-870",
      "city": "Żagań"
    },
    {
      "areaSize": 50,
      "street": "rynek Bąk",
      "houseNumber": "97",
      "postCode": "82-581",
      "city": "Gniewkowo"
    },
    {
      "areaSize": 50,
      "street": "bulw. Banach",
      "houseNumber": "67c",
      "postCode": "67-034",
      "city": "Włoszczowa"
    },
    {
      "areaSize": 50,
      "street": "wyb. Zając",
      "houseNumber": "20c",
      "postCode": "56-261",
      "city": "Radomyśl Wielki"
    },
    {
      "areaSize": 50,
      "street": "bulw. Flis",
      "houseNumber": "392",
      "postCode": "34-157",
      "city": "Malbork"
    },
    {
      "areaSize": 50,
      "street": "droga Szostak",
      "houseNumber": "99",
      "postCode": "35-782",
      "city": "Otwock"
    },
    {
      "areaSize": 50,
      "street": "al. Jurek",
      "houseNumber": "29c",
      "postCode": "53-326",
      "city": "Swarzędz"
    },
    {
      "areaSize": 50,
      "street": "wyspa Adamczyk",
      "houseNumber": "23a",
      "postCode": "92-004",
      "city": "Turek"
    },
    {
      "areaSize": 50,
      "street": "wyb. Duda",
      "houseNumber": "738",
      "postCode": "61-969",
      "city": "Łaziska Górne"
    },
    {
      "areaSize": 50,
      "street": "bulw. Górny",
      "houseNumber": "66a",
      "postCode": "89-689",
      "city": "Starachowice"
    },
    {
      "areaSize": 50,
      "street": "droga Gawroński",
      "houseNumber": "14a",
      "postCode": "89-895",
      "city": "Starogard Gdański"
    },
    {
      "areaSize": 50,
      "street": "skwer Rybarczyk",
      "houseNumber": "445",
      "postCode": "76-892",
      "city": "Brodnica"
    },
    {
      "areaSize": 50,
      "street": "droga Kaczmarek",
      "houseNumber": "87b",
      "postCode": "04-617",
      "city": "Ustrzyki Dolne"
    },
    {
      "areaSize": 50,
      "street": "park Rudzki",
      "houseNumber": "80c",
      "postCode": "19-549",
      "city": "Krzepice"
    },
    {
      "areaSize": 50,
      "street": "rynek Zagórski",
      "houseNumber": "10b",
      "postCode": "00-074",
      "city": "Dzierzgoń"
    },
    {
      "areaSize": 50,
      "street": "pl. Ratajczak",
      "houseNumber": "47",
      "postCode": "96-493",
      "city": "Gostynin"
    },
    {
      "areaSize": 50,
      "street": "szosa Szydłowski",
      "houseNumber": "93c",
      "postCode": "02-355",
      "city": "Nowe Warpno"
    },
    {
      "areaSize": 50,
      "street": "rondo Pawlicki",
      "houseNumber": "8/8",
      "postCode": "67-768",
      "city": "Andrychów"
    },
    {
      "areaSize": 50,
      "street": "droga Woś",
      "houseNumber": "16c",
      "postCode": "31-278",
      "city": "Wysokie Mazowieckie"
    },
    {
      "areaSize": 50,
      "street": "droga Pałka",
      "houseNumber": "44a",
      "postCode": "35-256",
      "city": "Zawiercie"
    },
    {
      "areaSize": 50,
      "street": "park Aleksandrowicz",
      "houseNumber": "33a",
      "postCode": "99-772",
      "city": "Brzostek"
    },
    {
      "areaSize": 50,
      "street": "wyb. Orzechowski",
      "houseNumber": "830",
      "postCode": "14-069",
      "city": "Skoczów"
    },
    {
      "areaSize": 50,
      "street": "skwer Gałka",
      "houseNumber": "92a",
      "postCode": "84-913",
      "city": "Błaszki"
    },
    {
      "areaSize": 50,
      "street": "wyspa Wolak",
      "houseNumber": "25b",
      "postCode": "71-597",
      "city": "Ożarów"
    },
    {
      "areaSize": 50,
      "street": "ul. Puchalski",
      "houseNumber": "69c",
      "postCode": "98-779",
      "city": "Brwinów"
    },
    {
      "areaSize": 50,
      "street": "wyb. Laskowski",
      "houseNumber": "53",
      "postCode": "86-404",
      "city": "Zawiercie"
    },
    {
      "areaSize": 50,
      "street": "park Kruk",
      "houseNumber": "69c",
      "postCode": "01-646",
      "city": "Konstantynów Łódzki"
    },
    {
      "areaSize": 50,
      "street": "wyb. Sikorski",
      "houseNumber": "64a",
      "postCode": "21-479",
      "city": "Gościno"
    },
    {
      "areaSize": 50,
      "street": "os. Sadowski",
      "houseNumber": "24c",
      "postCode": "21-617",
      "city": "Przeworsk"
    },
    {
      "areaSize": 50,
      "street": "droga Drzewiecki",
      "houseNumber": "7/2",
      "postCode": "73-359",
      "city": "Poniec"
    },
    {
      "areaSize": 50,
      "street": "droga Rojek",
      "houseNumber": "173",
      "postCode": "58-780",
      "city": "Nowe Miasto Lubawskie"
    },
    {
      "areaSize": 50,
      "street": "wyb. Śliwiński",
      "houseNumber": "3/2",
      "postCode": "13-581",
      "city": "Ropczyce"
    },
    {
      "areaSize": 50,
      "street": "rondo Drozd",
      "houseNumber": "473",
      "postCode": "13-702",
      "city": "Krynki"
    },
    {
      "areaSize": 50,
      "street": "rynek Dominiak",
      "houseNumber": "35",
      "postCode": "66-709",
      "city": "Głuszyca"
    },
    {
      "areaSize": 50,
      "street": "al. Kurowski",
      "houseNumber": "56c",
      "postCode": "21-104",
      "city": "Milicz"
    },
    {
      "areaSize": 50,
      "street": "pl. Chojnowski",
      "houseNumber": "49",
      "postCode": "90-490",
      "city": "Serock"
    },
    {
      "areaSize": 50,
      "street": "bulw. Zięba",
      "houseNumber": "62",
      "postCode": "15-142",
      "city": "Złoczew"
    },
    {
      "areaSize": 50,
      "street": "bulw. Kaczmarski",
      "houseNumber": "69b",
      "postCode": "16-038",
      "city": "Rymanów"
    },
    {
      "areaSize": 50,
      "street": "park Sołtys",
      "houseNumber": "74b",
      "postCode": "36-202",
      "city": "Leżajsk"
    },
    {
      "areaSize": 50,
      "street": "wyb. Siedlecki",
      "houseNumber": "474",
      "postCode": "30-205",
      "city": "Nieszawa"
    },
    {
      "areaSize": 50,
      "street": "wyspa Paszkowski",
      "houseNumber": "3/6",
      "postCode": "67-597",
      "city": "Żuromin"
    },
    {
      "areaSize": 50,
      "street": "park Stec",
      "houseNumber": "3/9",
      "postCode": "54-358",
      "city": "Glinojeck"
    },
    {
      "areaSize": 50,
      "street": "park Kalinowski",
      "houseNumber": "39b",
      "postCode": "53-370",
      "city": "Słomniki"
    },
    {
      "areaSize": 50,
      "street": "bulw. Kogut",
      "houseNumber": "12c",
      "postCode": "12-132",
      "city": "Lipiany"
    },
    {
      "areaSize": 50,
      "street": "skwer Cholewa",
      "houseNumber": "30a",
      "postCode": "37-279",
      "city": "Wąchock"
    },
    {
      "areaSize": 50,
      "street": "ogród Bednarski",
      "houseNumber": "20",
      "postCode": "93-590",
      "city": "Bełżyce"
    },
    {
      "areaSize": 50,
      "street": "skwer Białek",
      "houseNumber": "40a",
      "postCode": "85-701",
      "city": "Zakliczyn"
    },
    {
      "areaSize": 50,
      "street": "wyspa Jasiński",
      "houseNumber": "57a",
      "postCode": "31-430",
      "city": "Ziębice"
    },
    {
      "areaSize": 50,
      "street": "szosa Biernat",
      "houseNumber": "9/6",
      "postCode": "53-348",
      "city": "Tarnów"
    },
    {
      "areaSize": 50,
      "street": "wyb. Wierzbicki",
      "houseNumber": "93b",
      "postCode": "79-954",
      "city": "Gniewkowo"
    },
    {
      "areaSize": 50,
      "street": "al. Kowalewski",
      "houseNumber": "25a",
      "postCode": "66-102",
      "city": "Iława"
    },
    {
      "areaSize": 50,
      "street": "park Majewski",
      "houseNumber": "54b",
      "postCode": "92-894",
      "city": "Chełmża"
    },
    {
      "areaSize": 50,
      "street": "park Janusz",
      "houseNumber": "38a",
      "postCode": "56-090",
      "city": "Rudnik nad Sanem"
    },
    {
      "areaSize": 50,
      "street": "szosa Motyka",
      "houseNumber": "6/2",
      "postCode": "37-348",
      "city": "Gostynin"
    },
    {
      "areaSize": 50,
      "street": "park Płonka",
      "houseNumber": "38c",
      "postCode": "91-113",
      "city": "Koluszki"
    },
    {
      "areaSize": 50,
      "street": "wyspa Winiarski",
      "houseNumber": "510",
      "postCode": "85-190",
      "city": "Kielce"
    },
    {
      "areaSize": 50,
      "street": "szosa Białas",
      "houseNumber": "43",
      "postCode": "69-370",
      "city": "Skoczów"
    },
    {
      "areaSize": 50,
      "street": "szosa Ślusarczyk",
      "houseNumber": "87b",
      "postCode": "95-191",
      "city": "Koniecpol"
    },
    {
      "areaSize": 50,
      "street": "wyb. Lewandowski",
      "houseNumber": "8/6",
      "postCode": "82-669",
      "city": "Pieńsk"
    },
    {
      "areaSize": 50,
      "street": "park Janicki",
      "houseNumber": "31a",
      "postCode": "07-786",
      "city": "Legionowo"
    },
    {
      "areaSize": 50,
      "street": "rondo Sobczyk",
      "houseNumber": "3/1",
      "postCode": "03-772",
      "city": "Ozorków"
    },
    {
      "areaSize": 50,
      "street": "park Marzec",
      "houseNumber": "62b",
      "postCode": "77-845",
      "city": "Dolsk"
    },
    {
      "areaSize": 50,
      "street": "droga Pluta",
      "houseNumber": "65c",
      "postCode": "72-547",
      "city": "Wysoka"
    },
    {
      "areaSize": 50,
      "street": "os. Stanek",
      "houseNumber": "43a",
      "postCode": "83-170",
      "city": "Radomyśl Wielki"
    },
    {
      "areaSize": 50,
      "street": "os. Pluta",
      "houseNumber": "24",
      "postCode": "70-920",
      "city": "Terespol"
    },
    {
      "areaSize": 50,
      "street": "droga Kita",
      "houseNumber": "9/8",
      "postCode": "07-672",
      "city": "Myszyniec"
    },
    {
      "areaSize": 50,
      "street": "park Rak",
      "houseNumber": "80b",
      "postCode": "37-454",
      "city": "Włoszczowa"
    },
    {
      "areaSize": 50,
      "street": "bulw. Cichocki",
      "houseNumber": "957",
      "postCode": "80-710",
      "city": "Szczecinek"
    },
    {
      "areaSize": 50,
      "street": "ogród Milewski",
      "houseNumber": "26c",
      "postCode": "51-096",
      "city": "Marki"
    },
    {
      "areaSize": 50,
      "street": "rondo Więcek",
      "houseNumber": "46a",
      "postCode": "03-216",
      "city": "Orneta"
    },
    {
      "areaSize": 50,
      "street": "bulw. Falkowski",
      "houseNumber": "9/1",
      "postCode": "60-448",
      "city": "Pyzdry"
    },
    {
      "areaSize": 50,
      "street": "rondo Górniak",
      "houseNumber": "13b",
      "postCode": "07-426",
      "city": "Nowe Miasteczko"
    },
    {
      "areaSize": 50,
      "street": "szosa Kubik",
      "houseNumber": "36",
      "postCode": "65-962",
      "city": "Kleszczele"
    },
    {
      "areaSize": 50,
      "street": "szosa Adamczak",
      "houseNumber": "370",
      "postCode": "77-784",
      "city": "Zbąszynek"
    },
    {
      "areaSize": 50,
      "street": "droga Pilch",
      "houseNumber": "25c",
      "postCode": "80-630",
      "city": "Dukla"
    },
    {
      "areaSize": 50,
      "street": "skwer Kopeć",
      "houseNumber": "42c",
      "postCode": "52-665",
      "city": "Wąchock"
    },
    {
      "areaSize": 50,
      "street": "os. Knapik",
      "houseNumber": "19c",
      "postCode": "08-099",
      "city": "Szubin"
    },
    {
      "areaSize": 50,
      "street": "wyspa Kujawa",
      "houseNumber": "9/2",
      "postCode": "05-647",
      "city": "Olkusz"
    },
    {
      "areaSize": 50,
      "street": "ogród Wąsowski",
      "houseNumber": "3/1",
      "postCode": "15-311",
      "city": "Turek"
    },
    {
      "areaSize": 50,
      "street": "szosa Kasprzyk",
      "houseNumber": "493",
      "postCode": "36-602",
      "city": "Kłobuck"
    },
    {
      "areaSize": 50,
      "street": "wyb. Ziętek",
      "houseNumber": "44c",
      "postCode": "35-435",
      "city": "Sieniawa"
    },
    {
      "areaSize": 50,
      "street": "bulw. Górniak",
      "houseNumber": "53",
      "postCode": "20-691",
      "city": "Łomianki"
    },
    {
      "areaSize": 50,
      "street": "os. Bogusz",
      "houseNumber": "24a",
      "postCode": "94-071",
      "city": "Nekla"
    },
    {
      "areaSize": 50,
      "street": "rondo Szulc",
      "houseNumber": "858",
      "postCode": "18-420",
      "city": "Tłuszcz"
    }
  ]
}
