[
  {
    "areaSize": 50,
    "street": "Kanonicza 19",
    "houseNumber": "5",
    "postCode": "31-002",
    "city": "Krakow"
  },
  {
    "areaSize": 50,
    "street": "Andrzeja Frycza-Modrzewskiego 2",
    "houseNumber": "21",
    "postCode": "31-216",
    "city": "Krakow"
  },
  {
    "areaSize": 50,
    "street": "Zakopianska 62",
    "houseNumber": "6",
    "postCode": "30-418",
    "city": "Krakow"
  },
  {
    "areaSize": 50,
    "street": "Krakusa 9",
    "houseNumber": "92",
    "postCode": "30-535",
    "city": "Krakow"
  },
  {
    "areaSize": 50,
    "street": "Stradomska 10",
    "houseNumber": "104",
    "postCode": "31-058",
    "city": "Krakow"
  },
  {
    "areaSize": 50,
    "street": "Filipa 6",
    "houseNumber": "63",
    "postCode": "31-150",
    "city": "Krakow"
  },
  {
    "areaSize": 50,
    "street": "JÃ³zefa 36",
    "houseNumber": "144",
    "postCode": "31-000",
    "city": "Krakow"
  },
  {
    "areaSize": 50,
    "street": "Centralna 43",
    "houseNumber": "223",
    "postCode": "31-586",
    "city": "Krakow"
  },
  {
    "areaSize": 50,
    "street": "Warszawska 14",
    "houseNumber": "3",
    "postCode": "31-140",
    "city": "Krakow"
  },
  {
    "areaSize": 50,
    "street": "Raciborska 17",
    "houseNumber": "25",
    "postCode": "30-384",
    "city": "Krakow"
  }
]
